NORAD_CAT_ID,OBJECT_NAME,OBJECT_TYPE,EPOCH,MEAN_MOTION,ECCENTRICITY,INCLINATION,RA_OF_ASC_NODE,ARG_OF_PERICENTER,MEAN_ANOMALY,BSTAR,MEAN_MOTION_DOT,MEAN_MOTION_DDOT,TLE_LINE0,TLE_LINE1,TLE_LINE2,SEMIMAJOR_AXIS,PERIOD,APOGEE,PERIGEE,DECAYED
52547.0,STARLINK-3869,PAYLOAD,2022-06-25 22:00:00,15.14489875,0.00018,53.2174,87.0338,38.9859,51.22,-0.048784,-0.00846287,0.0,0 STARLINK-3869,1 52547U 22051Q   22176.91667824 -.00846287  00000-0 -48784-1 0  9993,2 52547  53.2174  87.0338 0001800  38.9859  51.2200 15.14489875  7219,6900.665,95.082,523.7719999999998,521.288,0.0
52547.0,STARLINK-3869,PAYLOAD,2022-06-26 14:00:01,15.13297077,0.0001798,53.2173,84.0108,40.0163,85.5839,-0.050315,-0.00844049,0.0,0 STARLINK-3869,1 52547U 22051Q   22177.58335648 -.00844049  00000-0 -50315-1 0  9990,2 52547  53.2173  84.0108 0001798  40.0163  85.5839 15.13297077  1300,6904.29,95.156,527.3969999999998,524.914,0.0
52547.0,STARLINK-3869,PAYLOAD,2022-06-26 20:00:01,15.12852252,0.0001706999999999,53.2176,82.8797,39.7933,8.2531,-0.051128,-0.00846799,0.0,0 STARLINK-3869,1 52547U 22051Q   22177.83334491 -.00846799  00000-0 -51128-1 0  9990,2 52547  53.2176  82.8797 0001707  39.7933   8.2531 15.12852252  7356,6905.644,95.184,528.687,526.33,0.0
52547.0,STARLINK-3869,PAYLOAD,2022-06-26 22:00:00,15.1270172,0.000188,53.2174,82.50299999999999,40.9418,101.1857,-0.051194,-0.00844501,0.0,0 STARLINK-3869,1 52547U 22051Q   22177.91667824 -.00844501  00000-0 -51194-1 0  9990,2 52547  53.2174  82.5030 0001880  40.9418 101.1857 15.12701720  1301,6906.102,95.194,529.265,526.668,0.0
52547.0,STARLINK-3869,PAYLOAD,2022-06-27 14:00:01,15.1151055,0.0001916,53.2173,79.4883,39.1987,133.9647,-0.052954,-0.00844848,0.0,0 STARLINK-3869,1 52547U 22051Q   22178.58334491 -.00844848  00000-0 -52954-1 0  9994,2 52547  53.2173  79.4883 0001916  39.1987 133.9647 15.11510550  1300,6909.73,95.269,532.919,530.271,0.0
52547.0,STARLINK-3869,PAYLOAD,2022-06-27 22:00:00,15.10913609,0.0002063,53.2175,77.9848,37.5583,150.0486,-0.05369,-0.00842635,0.0,0 STARLINK-3869,1 52547U 22051Q   22178.91667824 -.00842635  00000-0 -53690-1 0  9990,2 52547  53.2175  77.9848 0002063  37.5583 150.0486 15.10913609  7526,6911.549,95.307,534.84,531.989,0.0
52547.0,STARLINK-3869,PAYLOAD,2022-06-28 14:00:01,15.09683769,0.0001888,53.2173,74.9788,41.3683,172.9879,-0.049476,-0.0074801999999999,0.0,0 STARLINK-3869,1 52547U 22051Q   22179.58334491 -.00748020  00000-0 -49476-1 0  9995,2 52547  53.2173  74.9788 0001888  41.3683 172.9879 15.09683769  1300,6915.303000000001,95.384,538.4730000000002,535.862,0.0
52547.0,STARLINK-3869,PAYLOAD,2022-06-28 22:00:00,15.09168119,0.0002303,53.2175,73.4813,35.7043,190.9258,-0.028216,-0.00427315,0.0,0 STARLINK-3869,1 52547U 22051Q   22179.91667824 -.00427315  00000-0 -28216-1 0  9991,2 52547  53.2175  73.4813 0002303  35.7043 190.9258 15.09168119  1303,6916.878000000002,95.417,540.336,537.15,0.0
52547.0,STARLINK-3869,PAYLOAD,2022-06-29 06:00:00,15.08838342,0.0001636999999999,53.2173,71.9844,49.4572,188.9724,-0.00016776,-2.957e-05,0.0,0 STARLINK-3869,1 52547U 22051Q   22180.25001157 -.00002957  00000-0 -16776-3 0  9992,2 52547  53.2173  71.9844 0001637  49.4572 188.9724 15.08838342  7724,6917.885,95.438,540.883,538.618,0.0
52547.0,STARLINK-3869,PAYLOAD,2022-06-29 14:00:01,15.08827121,0.0001766,53.2199,70.4983,49.3514,200.5795,0.0028511,0.00045364,0.0,0 STARLINK-3869,1 52547U 22051Q   22180.58334491  .00045364  00000-0  28511-2 0  9994,2 52547  53.2199  70.4983 0001766  49.3514 200.5795 15.08827121  1308,6917.92,95.438,541.006,538.563,0.0
52547.0,STARLINK-3869,PAYLOAD,2022-06-29 22:00:00,15.08856399,0.0001923,53.2199,69.0037,47.1392,214.3863,-0.0013068,-0.00021035,0.0,0 STARLINK-3869,1 52547U 22051Q   22180.91667824 -.00021035  00000-0 -13068-2 0  9992,2 52547  53.2199  69.0037 0001923  47.1392 214.3863 15.08856399  1305,6917.83,95.437,541.026,538.365,0.0
52547.0,STARLINK-3869,PAYLOAD,2022-06-30 06:00:00,15.08873283,0.0001915,53.2194,67.5075,44.2947,228.8323,-0.0032949,-0.00052394,0.0,0 STARLINK-3869,1 52547U 22051Q   22181.25001157 -.00052394  00000-0 -32949-2 0  9992,2 52547  53.2194  67.5075 0001915  44.2947 228.8323 15.08873283  7870,6917.779,95.435,540.9680000000002,538.319,0.0
52547.0,STARLINK-3869,PAYLOAD,2022-06-30 14:00:01,15.08812105,0.0001744,53.2194,66.0096,49.2426,235.5072,0.0023346,0.00037034,0.0,0 STARLINK-3869,1 52547U 22051Q   22181.58334491  .00037034  00000-0  23346-2 0  9991,2 52547  53.2194  66.0096 0001744  49.2426 235.5072 15.08812105  1308,6917.965999999999,95.439,541.0369999999998,538.624,0.0
52547.0,STARLINK-3869,PAYLOAD,2022-06-30 22:00:00,15.08838272,0.0001912,53.2194,64.515,46.6117,249.7151,-0.0010152999999999,-0.0001641,0.0,0 STARLINK-3869,1 52547U 22051Q   22181.91667824 -.00016410  00000-0 -10153-2 0  9996,2 52547  53.2194  64.5150 0001912  46.6117 249.7151 15.08838272  7974,6917.886,95.438,541.073,538.428,0.0
52547.0,STARLINK-3869,PAYLOAD,2022-07-01 14:00:01,15.08818192,0.0001834,53.2193,61.5207,50.975,268.5325,0.002884,0.00045883,0.0,0 STARLINK-3869,1 52547U 22051Q   22182.58334491  .00045883  00000-0  28840-2 0  9997,2 52547  53.2193  61.5207 0001834  50.9750 268.5325 15.08818192  1309,6917.946999999999,95.439,541.081,538.543,0.0
52547.0,STARLINK-3869,PAYLOAD,2022-07-01 22:00:00,15.08848943,0.0002019,53.2193,60.026,47.9195,283.1764,-0.00093965,-0.00015216,0.0,0 STARLINK-3869,1 52547U 22051Q   22182.91667824 -.00015216  00000-0 -93965-3 0  9993,2 52547  53.2193  60.0260 0002019  47.9195 283.1764 15.08848943  1304,6917.853,95.437,541.115,538.321,0.0
52547.0,STARLINK-3869,PAYLOAD,2022-07-02 12:00:00,15.08910748,0.0002015,53.2179,57.3966,47.8248,213.5866,-0.0067729,-0.00106696,0.0,0 STARLINK-3869,1 52547U 22051Q   22183.50001157 -.00106696  00000-0 -67729-2 0  9991,2 52547  53.2179  57.3966 0002015  47.8248 213.5866 15.08910748  8214,6917.6640000000025,95.433,540.923,538.135,0.0
52547.0,STARLINK-3869,PAYLOAD,2022-07-02 14:00:01,15.08866213,0.0002058,53.2177,57.021,49.628,304.7099,-0.0029669,-0.00047232,0.0,0 STARLINK-3869,1 52547U 22051Q   22183.58334491 -.00047232  00000-0 -29669-2 0  9990,2 52547  53.2177  57.0210 0002058  49.6280 304.7099 15.08866213  1305,6917.8,95.436,541.089,538.242,0.0
52547.0,STARLINK-3869,PAYLOAD,2022-07-02 22:00:00,15.08883718,0.0002056,53.2188,55.5369,47.7746,318.1514,-0.0035841,-0.00056948,0.0,0 STARLINK-3869,1 52547U 22051Q   22183.91667824 -.00056948  00000-0 -35841-2 0  9999,2 52547  53.2188  55.5369 0002056  47.7746 318.1514 15.08883718  1309,6917.746999999999,95.435,541.034,538.189,0.0
52547.0,STARLINK-3869,PAYLOAD,2022-07-03 00:00:00,15.08858635,0.0002069,53.2188,55.1631,46.9914,51.8484,-0.00092353,-0.00014964,0.0,0 STARLINK-3869,1 52547U 22051Q   22184.00001157 -.00014964  00000-0 -92353-3 0  9995,2 52547  53.2188  55.1631 0002069  46.9914  51.8484 15.08858635  8280,6917.823,95.436,541.12,538.257,0.0
52547.0,STARLINK-3869,PAYLOAD,2022-07-03 14:00:01,15.08852523,0.0001851,53.2181,52.5423,50.6287,338.5304,-1.5747e-05,-5.39e-06,0.0,0 STARLINK-3869,1 52547U 22051Q   22184.58334491 -.00000539  00000-0 -15747-4 0  9994,2 52547  53.2181  52.5423 0001851  50.6287 338.5304 15.08852523  1308,6917.842,95.437,540.988,538.427,0.0
52547.0,STARLINK-3869,PAYLOAD,2022-07-03 22:00:00,15.08824377,0.0002005,53.2182,51.0477,45.6902,355.0648,-0.0010819,-0.00017458,0.0,0 STARLINK-3869,1 52547U 22051Q   22184.91667824 -.00017458  00000-0 -10819-2 0  9991,2 52547  53.2182  51.0477 0002005  45.6902 355.0648 15.08824377  1303,6917.928000000001,95.439,541.18,538.406,0.0
52547.0,STARLINK-3869,PAYLOAD,2022-07-04 06:00:00,15.08846774,0.0001907,53.2181,49.5507,43.5138,8.8186,-0.0044056999999999,-0.00069741,0.0,0 STARLINK-3869,1 52547U 22051Q   22185.25001157 -.00069741  00000-0 -44057-2 0  9993,2 52547  53.2181  49.5507 0001907  43.5138   8.8186 15.08846774  8476,6917.86,95.437,541.044,538.405,0.0
52547.0,STARLINK-3869,PAYLOAD,2022-07-04 14:00:01,15.08785841,0.0001781,53.2185,48.0532,49.8994,14.0103,0.0041289,0.00065941,0.0,0 STARLINK-3869,1 52547U 22051Q   22185.58334491  .00065941  00000-0  41289-2 0  9999,2 52547  53.2185  48.0532 0001781  49.8994  14.0103 15.08785841  1301,6918.045999999999,95.441,541.143,538.679,0.0
52547.0,STARLINK-3869,PAYLOAD,2022-07-04 22:00:00,15.08840265,0.000201,53.2185,46.5587,46.7867,28.6828,0.00028253,4.211e-05,0.0,0 STARLINK-3869,1 52547U 22051Q   22185.91667824  .00004211  00000-0  28253-3 0  9995,2 52547  53.2185  46.5587 0002010  46.7867  28.6828 15.08840265  8578,6917.88,95.438,541.135,538.354,0.0
52547.0,STARLINK-3869,PAYLOAD,2022-07-05 14:00:01,15.08860444,0.0001809,53.2187,43.5641,52.3962,46.2836,2.0481e-05,3.8e-07,0.0,0 STARLINK-3869,1 52547U 22051Q   22186.58334491  .00000038  00000-0  20481-4 0  9999,2 52547  53.2187  43.5641 0001809  52.3962  46.2836 15.08860444  1302,6917.818,95.436,540.934,538.431,0.0
52547.0,STARLINK-3869,PAYLOAD,2022-07-05 22:00:00,15.0883899,0.0001918,53.2186,42.0696,46.6677,63.6326,-0.00056249,-9.229e-05,0.0,0 STARLINK-3869,1 52547U 22051Q   22186.91667824 -.00009229  00000-0 -56249-3 0  9998,2 52547  53.2186  42.0696 0001918  46.6677  63.6326 15.08838990  1303,6917.8830000000025,95.438,541.075,538.422,0.0
52547.0,STARLINK-3869,PAYLOAD,2022-07-06 06:00:00,15.08852977,0.0001839,53.2183,40.5724,47.2579,74.6261,-0.0018975,-0.00030371,0.0,0 STARLINK-3869,1 52547U 22051Q   22187.25001157 -.00030371  00000-0 -18975-2 0  9992,2 52547  53.2183  40.5724 0001839  47.2579  74.6261 15.08852977  8774,6917.840999999999,95.437,540.9780000000002,538.434,0.0
52547.0,STARLINK-3869,PAYLOAD,2022-07-06 14:00:01,15.08838783,0.000175,53.2187,39.0753,53.7298,79.7505,0.0012608,0.00019834,0.0,0 STARLINK-3869,1 52547U 22051Q   22187.58334491  .00019834  00000-0  12608-2 0  9994,2 52547  53.2187  39.0753 0001750  53.7298  79.7505 15.08838783  1303,6917.884,95.438,540.96,538.538,0.0
